#aV2015  8 13  0  0  0.00000000     288 DD+AD WGS84 FIT  NGA
## 1857 345600.00000000   300.00000000 57247 0.0000000000000
+   31     1  2  3  4  5  6  7  8  9 11 12 13 14 15 16 17 18
+         19 20 21 22 23 24 25 26 27 28 29 30 31 32  0  0  0
+          0  0  0  0  0  0  0  0  0  0  0  0  0  0  0  0  0
+          0  0  0  0  0  0  0  0  0  0  0  0  0  0  0  0  0
+          0  0  0  0  0  0  0  0  0  0  0  0  0  0  0  0  0
++         2  2  2  2  2  2  2  2  2  2  2  2  2  2  2  2  2
++         2  2  2  2  2  2  2  2  2  2  2  2  2  2  0  0  0
++         0  0  0  0  0  0  0  0  0  0  0  0  0  0  0  0  0
++         0  0  0  0  0  0  0  0  0  0  0  0  0  0  0  0  0
++         0  0  0  0  0  0  0  0  0  0  0  0  0  0  0  0  0
%c cc cc ccc ccc cccc cccc cccc cccc ccccc ccccc ccccc ccccc
%c cc cc ccc ccc cccc cccc cccc cccc ccccc ccccc ccccc ccccc
%f  0.0000000  0.000000000  0.00000000000  0.000000000000000
%f  0.0000000  0.000000000  0.00000000000  0.000000000000000
%i    0    0    0    0      0      0      0      0         0
%i    0    0    0    0      0      0      0      0         0
/*      NGA, ST. LOUIS,MO.                                  
/*   EPHEMERIS COMPUTED FROM  1 DAYS OF DATA                
/*   EPOCHA SMOOTHER                                       
/* CCCCCCCCCCCCCCCCCCCCCCCCCCCCCCCCCCCCCCCCCCCCCCCCCCCCCCCCC
*  2015  8 13  5 20  0.00000000
P  1 -13543.138938  10163.815244  20348.739963     -1.341267                    
V  1  -2701.890321 -25908.989689  11304.046828      0.006326                    
P  2  13941.946667  14707.658691 -17010.474395    583.737208                    
V  2    352.419697  22304.875718  18714.622973      0.020002                    
P  3 -22917.451281  13192.072594   2659.977243     15.584764                    
V  3   1205.940420  -4222.968165  31462.909767      0.030911                    
P  4 -15551.209002   -452.208575  21198.757589     -9.746790                    
V  4  -2277.830624 -27688.718115  -1964.414761     -0.035486                    
P  5  18918.562544   3190.558204 -18497.750939   -207.153410                    
V  5 -18377.456616  14506.588543 -16149.770886      0.042148                    
P  6   7764.044621  23869.846891  -8701.487003     36.689101                    
V  6  -1727.932391  11189.953103  29156.768575      0.077905                    
P  7  -6678.588790  22867.003800 -11209.679787    479.656746                    
V  7  -3135.900166 -14408.889132 -27625.084287      0.019870                    
P  8 -23754.612440  -2428.839524  11654.416283     -1.555657                    
V  8 -12221.446337  -8590.213606 -26811.544254     -0.013750                    
P  9  -8827.253914  12670.288503 -21616.060593    -10.835313                    
V  9 -24605.499608 -12171.917275   2894.983392     -0.005835                    
P 11 -15426.373544   5548.818143  20358.419242   -597.559029                    
V 11 -10969.163923 -25108.992622  -1321.540872     -0.024418                    
P 12  23720.502544 -10462.409704   5117.267236    318.439389                    
V 12  -4636.470224   5184.977510  31649.423906      0.033864                    
P 13  23160.553336  12561.367840   2676.779766   -140.570934                    
V 13   1660.964652   4040.725667 -31863.538350     -0.032816                    
P 14  -8268.202592 -18713.322201  17273.796611     42.151395                    
V 14  19184.343240   9543.115226  19656.632608     -0.026691                    
P 15  24253.753108   1494.489297  11002.785425   -265.777887                    
V 15  11755.270292   8254.532045 -26481.304056     -0.020849                    
P 16 -18218.423810  -3931.740606 -19149.709046    -98.029292                    
V 16  20325.993055 -12674.865813 -16450.144962      0.041453                    
P 17   9999.679331  18426.737450  16729.012555   -183.939849                    
V 17 -18714.502563  -8640.562104  20877.786767     -0.014217                    
P 18  11019.931318 -20232.707944  13468.931334    425.051349                    
V 18  15269.399845  -6974.851233 -24164.624644      0.031345                    
P 19 -23746.964986  -5974.825264  10639.658140   -518.197353                    
V 19 -10651.333135  -8751.563886 -27678.573567     -0.007822                    
P 20  22963.820600 -11758.449932  -6645.138523    346.518822                    
V 20  -4255.152871   7962.952793 -29368.558368      0.031392                    
P 21   3673.178794 -24681.245269  -7883.312019   -471.560196                    
V 21   4761.276101  10719.294264 -29125.851574     -0.030059                    
P 22  -1632.882849 -17490.689950  20117.894203    380.818264                    
V 22  21385.473130 -13429.865649 -10236.597040      0.036488                    
P 23 -20388.168487   3386.460088 -16756.916340   -126.862042                    
V 23 -18447.983255 -11115.033437  19564.402572     -0.022917                    
P 24  14390.026073  -7251.307202  21055.008193     -2.932244                    
V 24   3088.457827  26703.610222   7222.137602     -0.006041                    
P 25  18310.171588 -17892.913089  -6847.660535    -24.788085                    
V 25   8382.461218  -2919.011386  30649.675442     -0.047944                    
P 26  -9526.444901 -11916.068997 -21748.049772    -26.032959                    
V 26  22759.894449 -15613.900206  -1410.576193     -0.081587                    
P 27 -23746.680530 -12027.916794   -686.893872     11.493344                    
V 27   1838.582745  -1875.171186 -31817.300258      0.028605                    
P 28  -3989.537637  17552.842628  20122.992102    460.200013                    
V 28 -21326.238614  11373.010946 -14686.523689      0.026694                    
P 29  11395.126915 -10436.957623 -21583.574696    627.818050                    
V 29  23707.944327  13751.732514   5904.150674      0.021091                    
P 30   -420.740766  26509.400914   -449.253888      5.013828                    
V 30  -3055.072743   -577.742867 -31684.410852      0.071803                    
P 31  -7568.910286 -23208.053362  -9909.978557    306.588001                    
V 31   1943.875616 -12942.517215  28780.909758     -0.013263                    
P 32 -22628.766091   1726.257994  13308.603783    -73.850432                    
V 32  13549.600371 -11002.811579  24938.533230      0.104857                    
EOF
